[Satellite]
VERSION=1.1
NAME=SL-3 R/B
NICKNAME=SL-3 R/B
TLE1=1 13403U 82079B   18020.95324014  .00000204  00000-0  12033-4 0  9995
TLE2=2 13403  81.1693  19.8863 0032845 280.1068  79.6451 15.06769480929292
